{
    "links": {
        "self": "http://www.neowsapp.com/rest/v1/neo/3787079?api_key=iIulBulltgU6a56xZRHN4H3l9WmuAYTsLGpBGhQ2"
    },
    "id": "3787079",
    "neo_reference_id": "3787079",
    "name": "(2017 UX)",
    "designation": "2017 UX",
    "nasa_jpl_url": "http://ssd.jpl.nasa.gov/sbdb.cgi?sstr=3787079",
    "absolute_magnitude_h": 25.3,
    "estimated_diameter": {
        "kilometers": {
            "estimated_diameter_min": 0.0231502122,
            "estimated_diameter_max": 0.0517654482
        },
        "meters": {
            "estimated_diameter_min": 23.150212221,
            "estimated_diameter_max": 51.7654482198
        },
        "miles": {
            "estimated_diameter_min": 0.0143848705,
            "estimated_diameter_max": 0.0321655483
        },
        "feet": {
            "estimated_diameter_min": 75.9521422633,
            "estimated_diameter_max": 169.8341531374
        }
    },
    "is_potentially_hazardous_asteroid": false,
    "close_approach_data": [
        {
            "close_approach_date": "2017-06-01",
            "close_approach_date_full": "2017-Jun-01 17:43",
            "epoch_date_close_approach": 1496338980000,
            "relative_velocity": {
                "kilometers_per_second": "5.8683431274",
                "kilometers_per_hour": "21126.0352587123",
                "miles_per_hour": "13126.896741726"
            },
            "miss_distance": {
                "astronomical": "0.3536450502",
                "lunar": "137.5679245278",
                "kilometers": "52904546.245963074",
                "miles": "32873360.6792514612"
            },
            "orbiting_body": "Earth"
        },
        {
            "close_approach_date": "2017-10-02",
            "close_approach_date_full": "2017-Oct-02 02:20",
            "epoch_date_close_approach": 1506910800000,
            "relative_velocity": {
                "kilometers_per_second": "10.5582342887",
                "kilometers_per_hour": "38009.6434392937",
                "miles_per_hour": "23617.7142803767"
            },
            "miss_distance": {
                "astronomical": "0.0853953413",
                "lunar": "33.2187877657",
                "kilometers": "12774961.166403031",
                "miles": "7937992.7791865878"
            },
            "orbiting_body": "Earth"
        },
        {
            "close_approach_date": "2158-10-13",
            "close_approach_date_full": "2158-Oct-13 14:15",
            "epoch_date_close_approach": 5957417700000,
            "relative_velocity": {
                "kilometers_per_second": "15.1955340865",
                "kilometers_per_hour": "54703.9227112517",
                "miles_per_hour": "33990.8901979997"
            },
            "miss_distance": {
                "astronomical": "0.2395734436",
                "lunar": "93.1940695604",
                "kilometers": "35839676.871125132",
                "miles": "22269742.5460335416"
            },
            "orbiting_body": "Earth"
        }
    ],
    "orbital_data": {
        "orbit_id": "2",
        "orbit_determination_date": "2019-07-19 05:26:17",
        "first_observation_date": "2017-10-16",
        "last_observation_date": "2017-10-18",
        "data_arc_in_days": 2,
        "observations_used": 19,
        "orbit_uncertainty": "9",
        "minimum_orbit_intersection": ".0802278",
        "jupiter_tisserand_invariant": "4.485",
        "epoch_osculation": "2458044.5",
        "eccentricity": ".336954582483612",
        "semi_major_axis": "1.483882753953173",
        "inclination": "13.35826080912999",
        "ascending_node_longitude": "20.4842748893899",
        "orbital_period": "660.2338822689545",
        "perihelion_distance": ".9838816601402492",
        "perihelion_argument": "302.3674003453602",
        "aphelion_distance": "1.983883847766097",
        "perihelion_time": "2457988.914297564775",
        "mean_anomaly": "30.30873363831596",
        "mean_motion": ".5452613227949267",
        "equinox": "J2000",
        "orbit_class": {
            "orbit_class_type": "APO",
            "orbit_class_description": "Near-Earth asteroid orbits which cross the Earth’s orbit similar to that of 1862 Apollo",
            "orbit_class_range": "a (semi-major axis) > 1.0 AU; q (perihelion) < 1.017 AU"
        }
    },
    "is_sentry_object": false
}